{"type": "FeatureCollection", "features": [ {"type": "Feature", "properties": {"norad_id": 66613, "name": "STARLINK-36037", "group": "last-30-days", "lat": 38.28702916430389, "lon": -19.650239033493968, "alt_km": 380.2345616429284, "timestamp": "2025-12-08T08:58:59.557841+00:00", "meta": {"OBJECT_NAME": "STARLINK-36037", "OBJECT_ID": "2025-270AB", "EPOCH": "2025-12-07T22:00:03.000096", "MEAN_MOTION": 15.62828093, "ECCENTRICITY": 0.00014132, "INCLINATION": 42.9987, "RA_OF_ASC_NODE": 220.9767, "ARG_OF_PERICENTER": 271.6128, "MEAN_ANOMALY": 147.0323, "EPHEMERIS_TYPE": 0, "CLASSIFICATION_TYPE": "U", "NORAD_CAT_ID": 66613, "ELEMENT_SET_NO": 999, "REV_AT_EPOCH": 362, "BSTAR": -0.024585034, "MEAN_MOTION_DOT": -0.02002427, "MEAN_MOTION_DDOT": 0}, "tle": {"line1": "1 66613U 25270AB  25341.91670139 -.02002427  00000+0 -24585-1 0  9992", "line2": "2 66613  42.9987 220.9767 0001413 271.6128 147.0323 15.62828093  3627"}}, "geometry": {"type": "Point", "coordinates": [-19.650239033493968, 38.28702916430389]}}, {"type": "Feature", "properties": {"norad_id": 66614, "name": "STARLINK-36040", "group": "last-30-days", "lat": 36.81116035400188, "lon": -15.190290908249759, "alt_km": 380.4954492496654, "timestamp": "2025-12-08T08:58:59.557851+00:00", "meta": {"OBJECT_NAME": "STARLINK-36040", "OBJECT_ID": "2025-270AC", "EPOCH": "2025-12-07T22:00:03.000096", "MEAN_MOTION": 15.62827728, "ECCENTRICITY": 0.00014739, "INCLINATION": 42.9988, "RA_OF_ASC_NODE": 220.9666, "ARG_OF_PERICENTER": 274.0078, "MEAN_ANOMALY": 148.4704, "EPHEMERIS_TYPE": 0, "CLASSIFICATION_TYPE": "U", "NORAD_CAT_ID": 66614, "ELEMENT_SET_NO": 999, "REV_AT_EPOCH": 346, "BSTAR": -0.024560392, "MEAN_MOTION_DOT": -0.02000688, "MEAN_MOTION_DDOT": 0}, "tle": {"line1": "1 66614U 25270AC  25341.91670139 -.02000688  00000+0 -24560-1 0  9993", "line2": "2 66614  42.9988 220.9666 0001473 274.0078 148.4704 15.62827728  3468"}}, "geometry": {"type": "Point", "coordinates": [-15.190290908249759, 36.81116035400188]}}, {"type": "Feature", "properties": {"norad_id": 66615, "name": "STARLINK-35988", "group": "last-30-days", "lat": 37.57087493799058, "lon": -17.399586700974243, "alt_km": 380.35262339100973, "timestamp": "2025-12-08T08:58:59.557861+00:00", "meta": {"OBJECT_NAME": "STARLINK-35988", "OBJECT_ID": "2025-270AD", "EPOCH": "2025-12-07T22:00:03.000096", "MEAN_MOTION": 15.62827769, "ECCENTRICITY": 0.00014687, "INCLINATION": 42.999, "RA_OF_ASC_NODE": 220.9716, "ARG_OF_PERICENTER": 270.8204, "MEAN_ANOMALY": 149.7394, "EPHEMERIS_TYPE": 0, "CLASSIFICATION_TYPE": "U", "NORAD_CAT_ID": 66615, "ELEMENT_SET_NO": 999, "REV_AT_EPOCH": 346, "BSTAR": -0.024547141, "MEAN_MOTION_DOT": -0.0199974, "MEAN_MOTION_DDOT": 0}, "tle": {"line1": "1 66615U 25270AD  25341.91670139 -.01999740  00000+0 -24547-1 0  9994", "line2": "2 66615  42.9990 220.9716 0001468 270.8204 149.7394 15.62827769  3461"}}, "geometry": {"type": "Point", "coordinates": [-17.399586700974243, 37.57087493799058]}}, {"type": "Feature", "properties": {"norad_id": 66616, "name": "STARLINK-35391", "group": "last-30-days", "lat": 36.012656084065775, "lon": -13.027679423281347, "alt_km": 380.5404752078475, "timestamp": "2025-12-08T08:58:59.557871+00:00", "meta": {"OBJECT_NAME": "STARLINK-35391", "OBJECT_ID": "2025-270AE", "EPOCH": "2025-12-07T22:00:03.000096", "MEAN_MOTION": 15.62828195, "ECCENTRICITY": 0.00014059, "INCLINATION": 42.999, "RA_OF_ASC_NODE": 220.9623, "ARG_OF_PERICENTER": 271.3001, "MEAN_ANOMALY": 153.0966, "EPHEMERIS_TYPE": 0, "CLASSIFICATION_TYPE": "U", "NORAD_CAT_ID": 66616, "ELEMENT_SET_NO": 999, "REV_AT_EPOCH": 373, "BSTAR": -0.024595256, "MEAN_MOTION_DOT": -0.02003158, "MEAN_MOTION_DDOT": 0}, "tle": {"line1": "1 66616U 25270AE  25341.91670139 -.02003158  00000+0 -24595-1 0  9998", "line2": "2 66616  42.9990 220.9623 0001405 271.3001 153.0966 15.62828195  3738"}}, "geometry": {"type": "Point", "coordinates": [-13.027679423281347, 36.012656084065775]}}, {"type": "Feature", "properties": {"norad_id": 66617, "name": "STARLINK-35940", "group": "last-30-days", "lat": 36.11008080775115, "lon": -118.41960784297, "alt_km": 356.98129194979265, "timestamp": "2025-12-08T08:58:59.557882+00:00", "meta": {"OBJECT_NAME": "STARLINK-35940", "OBJECT_ID": "2025-271A", "EPOCH": "2025-12-07T22:00:03.000096", "MEAN_MOTION": 15.7078851, "ECCENTRICITY": 9.487e-05, "INCLINATION": 53.1591, "RA_OF_ASC_NODE": 210.6803, "ARG_OF_PERICENTER": 83.7621, "MEAN_ANOMALY": 256.2237, "EPHEMERIS_TYPE": 0, "CLASSIFICATION_TYPE": "U", "NORAD_CAT_ID": 66617, "ELEMENT_SET_NO": 999, "REV_AT_EPOCH": 346, "BSTAR": -0.017397008, "MEAN_MOTION_DOT": -0.01951392, "MEAN_MOTION_DDOT": 0}, "tle": {"line1": "1 66617U 25271A   25341.91670139 -.01951392  00000+0 -17397-1 0  9993", "line2": "2 66617  53.1591 210.6803 0000948  83.7621 256.2237 15.70788510  3462"}}, "geometry": {"type": "Point", "coordinates": [-118.41960784297, 36.11008080775115]}}, {"type": "Feature", "properties": {"norad_id": 66618, "name": "STARLINK-35970", "group": "last-30-days", "lat": 51.79323416271224, "lon": -43.96383147527596, "alt_km": 354.60618247007096, "timestamp": "2025-12-08T08:58:59.557894+00:00", "meta": {"OBJECT_NAME": "STARLINK-35970", "OBJECT_ID": "2025-271B", "EPOCH": "2025-12-07T22:00:03.000096", "MEAN_MOTION": 15.70793541, "ECCENTRICITY": 6.683e-05, "INCLINATION": 53.1593, "RA_OF_ASC_NODE": 210.568, "ARG_OF_PERICENTER": 92.4635, "MEAN_ANOMALY": 300.8428, "EPHEMERIS_TYPE": 0, "CLASSIFICATION_TYPE": "U", "NORAD_CAT_ID": 66618, "ELEMENT_SET_NO": 999, "REV_AT_EPOCH": 346, "BSTAR": -0.01747551, "MEAN_MOTION_DOT": -0.01959338, "MEAN_MOTION_DDOT": 0}, "tle": {"line1": "1 66618U 25271B   25341.91670139 -.01959338  00000+0 -17476-1 0  9990", "line2": "2 66618  53.1593 210.5680 0000668  92.4635 300.8428 15.70793541  3466"}}, "geometry": {"type": "Point", "coordinates": [-43.96383147527596, 51.79323416271224]}}, {"type": "Feature", "properties": {"norad_id": 66619, "name": "STARLINK-35951", "group": "last-30-days", "lat": 41.021895326042056, "lon": -110.88083926854415, "alt_km": 356.3507616980778, "timestamp": "2025-12-08T08:58:59.557907+00:00", "meta": {"OBJECT_NAME": "STARLINK-35951", "OBJECT_ID": "2025-271C", "EPOCH": "2025-12-07T22:00:03.000096", "MEAN_MOTION": 15.70793557, "ECCENTRICITY": 7.709e-05, "INCLINATION": 53.159, "RA_OF_ASC_NODE": 210.6639, "ARG_OF_PERICENTER": 95.8439, "MEAN_ANOMALY": 251.8057, "EPHEMERIS_TYPE": 0, "CLASSIFICATION_TYPE": "U", "NORAD_CAT_ID": 66619, "ELEMENT_SET_NO": 999, "REV_AT_EPOCH": 346, "BSTAR": -0.017460083, "MEAN_MOTION_DOT": -0.01957885, "MEAN_MOTION_DDOT": 0}, "tle": {"line1": "1 66619U 25271C   25341.91670139 -.01957885  00000+0 -17460-1 0  9999", "line2": "2 66619  53.1590 210.6639 0000770  95.8439 251.8057 15.70793557  3462"}}, "geometry": {"type": "Point", "coordinates": [-110.88083926854415, 41.021895326042056]}}, {"type": "Feature", "properties": {"norad_id": 66620, "name": "STARLINK-35936", "group": "last-30-days", "lat": 37.38315225093853, "lon": -116.62917933963455, "alt_km": 356.9171788339363, "timestamp": "2025-12-08T08:58:59.557917+00:00", "meta": {"OBJECT_NAME": "STARLINK-35936", "OBJECT_ID": "2025-271D", "EPOCH": "2025-12-07T22:00:03.000096", "MEAN_MOTION": 15.70793036, "ECCENTRICITY": 6.553e-05, "INCLINATION": 53.1592, "RA_OF_ASC_NODE": 210.6763, "ARG_OF_PERICENTER": 82.0634, "MEAN_ANOMALY": 259.835, "EPHEMERIS_TYPE": 0, "CLASSIFICATION_TYPE": "U", "NORAD_CAT_ID": 66620, "ELEMENT_SET_NO": 999, "REV_AT_EPOCH": 346, "BSTAR": -0.017446201, "MEAN_MOTION_DOT": -0.01956388, "MEAN_MOTION_DDOT": 0}, "tle": {"line1": "1 66620U 25271D   25341.91670139 -.01956388  00000+0 -17446-1 0  9992", "line2": "2 66620  53.1592 210.6763 0000655  82.0634 259.8350 15.70793036  3467"}}, "geometry": {"type": "Point", "coordinates": [-116.62917933963455, 37.38315225093853]}}, {"type": "Feature", "properties": {"norad_id": 66621, "name": "STARLINK-35847", "group": "last-30-days", "lat": 50.801669713278294, "lon": -38.526250106145184, "alt_km": 354.71312167656015, "timestamp": "2025-12-08T08:58:59.557927+00:00", "meta": {"OBJECT_NAME": "STARLINK-35847", "OBJECT_ID": "2025-271E", "EPOCH": "2025-12-07T22:00:03.000096", "MEAN_MOTION": 15.70795719, "ECCENTRICITY": 7.187e-05, "INCLINATION": 53.1593, "RA_OF_ASC_NODE": 210.5599, "ARG_OF_PERICENTER": 90.6517, "MEAN_ANOMALY": 306.1918, "EPHEMERIS_TYPE": 0, "CLASSIFICATION_TYPE": "U", "NORAD_CAT_ID": 66621, "ELEMENT_SET_NO": 999, "REV_AT_EPOCH": 346, "BSTAR": -0.017497326, "MEAN_MOTION_DOT": -0.01961695, "MEAN_MOTION_DDOT": 0}, "tle": {"line1": "1 66621U 25271E   25341.91670139 -.01961695  00000+0 -17497-1 0  9996", "line2": "2 66621  53.1593 210.5599 0000718  90.6517 306.1918 15.70795719  3466"}}, "geometry": {"type": "Point", "coordinates": [-38.526250106145184, 50.801669713278294]}}, {"type": "Feature", "properties": {"norad_id": 66622, "name": "STARLINK-35950", "group": "last-30-days", "lat": 42.168413625494274, "lon": -108.82459736319474, "alt_km": 356.11080381808915, "timestamp": "2025-12-08T08:58:59.557940+00:00", "meta": {"OBJECT_NAME": "STARLINK-35950", "OBJECT_ID": "2025-271F", "EPOCH": "2025-12-07T22:00:03.000096", "MEAN_MOTION": 15.70790503, "ECCENTRICITY": 8.253e-05, "INCLINATION": 53.1591, "RA_OF_ASC_NODE": 210.6601, "ARG_OF_PERICENTER": 93.5627, "MEAN_ANOMALY": 256.008, "EPHEMERIS_TYPE": 0, "CLASSIFICATION_TYPE": "U", "NORAD_CAT_ID": 66622, "ELEMENT_SET_NO": 999, "REV_AT_EPOCH": 346, "BSTAR": -0.017446407, "MEAN_MOTION_DOT": -0.01956345, "MEAN_MOTION_DDOT": 0}, "tle": {"line1": "1 66622U 25271F   25341.91670139 -.01956345  00000+0 -17446-1 0  9997", "line2": "2 66622  53.1591 210.6601 0000825  93.5627 256.0080 15.70790503  3462"}}, "geometry": {"type": "Point", "coordinates": [-108.82459736319474, 42.168413625494274]}}]}